[{"OBJECT_NAME":"EINSTEIN PROBE","OBJECT_ID":"2024-007A","EPOCH":"2026-03-09T14:28:05.763072","MEAN_MOTION":15.01336938,"ECCENTRICITY":0.0009522,"INCLINATION":28.998,"RA_OF_ASC_NODE":140.909,"ARG_OF_PERICENTER":248.3814,"MEAN_ANOMALY":111.577,"EPHEMERIS_TYPE":0,"CLASSIFICATION_TYPE":"U","NORAD_CAT_ID":58753,"ELEMENT_SET_NO":999,"REV_AT_EPOCH":11858,"BSTAR":0.00031977,"MEAN_MOTION_DOT":4.372e-5,"MEAN_MOTION_DDOT":0},{"OBJECT_NAME":"TIANPING 3A-01","OBJECT_ID":"2024-189A","EPOCH":"2026-03-09T23:38:12.967584","MEAN_MOTION":15.01001778,"ECCENTRICITY":0.00023202,"INCLINATION":97.5354,"RA_OF_ASC_NODE":92.2908,"ARG_OF_PERICENTER":68.007,"MEAN_ANOMALY":292.1401,"EPHEMERIS_TYPE":0,"CLASSIFICATION_TYPE":"U","NORAD_CAT_ID":61614,"ELEMENT_SET_NO":999,"REV_AT_EPOCH":7560,"BSTAR":0.00039570452,"MEAN_MOTION_DOT":4.995e-5,"MEAN_MOTION_DDOT":0}]
